[{"OBJECT_NAME":"METOP-C","OBJECT_ID":"2018-087A","EPOCH":"2026-04-25T20:10:07.268160","MEAN_MOTION":14.21511565,"ECCENTRICITY":8.65e-5,"INCLINATION":98.668,"RA_OF_ASC_NODE":176.3914,"ARG_OF_PERICENTER":40.7694,"MEAN_ANOMALY":319.3548,"EPHEMERIS_TYPE":0,"CLASSIFICATION_TYPE":"U","NORAD_CAT_ID":43689,"ELEMENT_SET_NO":999,"REV_AT_EPOCH":38739,"BSTAR":6.2383e-5,"MEAN_MOTION_DOT":9.3e-7,"MEAN_MOTION_DDOT":0},{"OBJECT_NAME":"GEO-KOMPSAT-2A","OBJECT_ID":"2018-100A","EPOCH":"2026-04-25T17:38:30.913728","MEAN_MOTION":1.00271473,"ECCENTRICITY":0.0001934,"INCLINATION":0.0542,"RA_OF_ASC_NODE":66.6638,"ARG_OF_PERICENTER":358.3909,"MEAN_ANOMALY":181.5885,"EPHEMERIS_TYPE":0,"CLASSIFICATION_TYPE":"U","NORAD_CAT_ID":43823,"ELEMENT_SET_NO":999,"REV_AT_EPOCH":2710,"BSTAR":0,"MEAN_MOTION_DOT":-3.58e-6,"MEAN_MOTION_DDOT":0},{"OBJECT_NAME":"METEOR-M2 2","OBJECT_ID":"2019-038A","EPOCH":"2026-04-25T20:10:41.248416","MEAN_MOTION":14.24350594,"ECCENTRICITY":0.0001736,"INCLINATION":98.9136,"RA_OF_ASC_NODE":102.3607,"ARG_OF_PERICENTER":128.7449,"MEAN_ANOMALY":231.3884,"EPHEMERIS_TYPE":0,"CLASSIFICATION_TYPE":"U","NORAD_CAT_ID":44387,"ELEMENT_SET_NO":999,"REV_AT_EPOCH":35384,"BSTAR":3.0052e-5,"MEAN_MOTION_DOT":2.4e-7,"MEAN_MOTION_DDOT":0},{"OBJECT_NAME":"ARKTIKA-M 1","OBJECT_ID":"2021-016A","EPOCH":"2026-04-23T03:56:17.933280","MEAN_MOTION":2.00609676,"ECCENTRICITY":0.72664948,"INCLINATION":63.2246,"RA_OF_ASC_NODE":65.5569,"ARG_OF_PERICENTER":269.6808,"MEAN_ANOMALY":14.9538,"EPHEMERIS_TYPE":0,"CLASSIFICATION_TYPE":"U","NORAD_CAT_ID":47719,"ELEMENT_SET_NO":999,"REV_AT_EPOCH":3768,"BSTAR":0,"MEAN_MOTION_DOT":-1.01e-6,"MEAN_MOTION_DDOT":0},{"OBJECT_NAME":"FENGYUN 3E","OBJECT_ID":"2021-062A","EPOCH":"2026-04-25T20:16:19.519104","MEAN_MOTION":14.19899761,"ECCENTRICITY":7.79e-5,"INCLINATION":98.7513,"RA_OF_ASC_NODE":119.8357,"ARG_OF_PERICENTER":197.9012,"MEAN_ANOMALY":162.2137,"EPHEMERIS_TYPE":0,"CLASSIFICATION_TYPE":"U","NORAD_CAT_ID":49008,"ELEMENT_SET_NO":999,"REV_AT_EPOCH":24915,"BSTAR":0.00010442,"MEAN_MOTION_DOT":1.78e-6,"MEAN_MOTION_DDOT":0},{"OBJECT_NAME":"GOES 18","OBJECT_ID":"2022-021A","EPOCH":"2026-04-25T16:22:53.166720","MEAN_MOTION":1.00271801,"ECCENTRICITY":3.86e-5,"INCLINATION":0.0124,"RA_OF_ASC_NODE":93.6914,"ARG_OF_PERICENTER":357.8405,"MEAN_ANOMALY":230.8777,"EPHEMERIS_TYPE":0,"CLASSIFICATION_TYPE":"U","NORAD_CAT_ID":51850,"ELEMENT_SET_NO":999,"REV_AT_EPOCH":606,"BSTAR":0,"MEAN_MOTION_DOT":8.3e-7,"MEAN_MOTION_DDOT":0},{"OBJECT_NAME":"NOAA 21 (JPSS-2)","OBJECT_ID":"2022-150A","EPOCH":"2026-04-25T19:20:00.900672","MEAN_MOTION":14.19555423,"ECCENTRICITY":0.0001852,"INCLINATION":98.7032,"RA_OF_ASC_NODE":55.4822,"ARG_OF_PERICENTER":23.6465,"MEAN_ANOMALY":336.4796,"EPHEMERIS_TYPE":0,"CLASSIFICATION_TYPE":"U","NORAD_CAT_ID":54234,"ELEMENT_SET_NO":999,"REV_AT_EPOCH":17911,"BSTAR":3.9487e-5,"MEAN_MOTION_DOT":4.0e-7,"MEAN_MOTION_DDOT":0},{"OBJECT_NAME":"METEOSAT-12 (MTG-I1)","OBJECT_ID":"2022-170C","EPOCH":"2026-04-25T20:27:16.927200","MEAN_MOTION":1.0026928,"ECCENTRICITY":0.0001131,"INCLINATION":0.7233,"RA_OF_ASC_NODE":22.2267,"ARG_OF_PERICENTER":330.7697,"MEAN_ANOMALY":167.3619,"EPHEMERIS_TYPE":0,"CLASSIFICATION_TYPE":"U","NORAD_CAT_ID":54743,"ELEMENT_SET_NO":999,"REV_AT_EPOCH":1245,"BSTAR":0,"MEAN_MOTION_DOT":-2.1e-7,"MEAN_MOTION_DDOT":0},{"OBJECT_NAME":"TIANMU-1 03","OBJECT_ID":"2023-039A","EPOCH":"2026-04-25T20:01:14.169792","MEAN_MOTION":15.45761773,"ECCENTRICITY":0.0001654,"INCLINATION":97.5221,"RA_OF_ASC_NODE":287.8205,"ARG_OF_PERICENTER":286.9253,"MEAN_ANOMALY":73.1814,"EPHEMERIS_TYPE":0,"CLASSIFICATION_TYPE":"U","NORAD_CAT_ID":55973,"ELEMENT_SET_NO":999,"REV_AT_EPOCH":17274,"BSTAR":0.00033752,"MEAN_MOTION_DOT":0.00016251,"MEAN_MOTION_DDOT":0},{"OBJECT_NAME":"TIANMU-1 04","OBJECT_ID":"2023-039B","EPOCH":"2026-04-25T20:13:51.752640","MEAN_MOTION":15.46305728,"ECCENTRICITY":0.000228,"INCLINATION":97.5155,"RA_OF_ASC_NODE":286.9826,"ARG_OF_PERICENTER":279.1777,"MEAN_ANOMALY":80.9214,"EPHEMERIS_TYPE":0,"CLASSIFICATION_TYPE":"U","NORAD_CAT_ID":55974,"ELEMENT_SET_NO":999,"REV_AT_EPOCH":17275,"BSTAR":0.00033954,"MEAN_MOTION_DOT":0.00016658,"MEAN_MOTION_DDOT":0},{"OBJECT_NAME":"TIANMU-1 05","OBJECT_ID":"2023-039C","EPOCH":"2026-04-25T19:30:11.523168","MEAN_MOTION":15.45698115,"ECCENTRICITY":0.000163,"INCLINATION":97.52,"RA_OF_ASC_NODE":287.4323,"ARG_OF_PERICENTER":329.3818,"MEAN_ANOMALY":30.7335,"EPHEMERIS_TYPE":0,"CLASSIFICATION_TYPE":"U","NORAD_CAT_ID":55975,"ELEMENT_SET_NO":999,"REV_AT_EPOCH":17272,"BSTAR":0.0003325,"MEAN_MOTION_DOT":0.00015972,"MEAN_MOTION_DDOT":0},{"OBJECT_NAME":"TIANMU-1 06","OBJECT_ID":"2023-039D","EPOCH":"2026-04-25T20:14:37.410720","MEAN_MOTION":15.46233269,"ECCENTRICITY":0.0001824,"INCLINATION":97.5209,"RA_OF_ASC_NODE":288.0488,"ARG_OF_PERICENTER":315.7336,"MEAN_ANOMALY":44.3767,"EPHEMERIS_TYPE":0,"CLASSIFICATION_TYPE":"U","NORAD_CAT_ID":55976,"ELEMENT_SET_NO":999,"REV_AT_EPOCH":17275,"BSTAR":0.00033554,"MEAN_MOTION_DOT":0.00016419,"MEAN_MOTION_DDOT":0},{"OBJECT_NAME":"FENGYUN 3G","OBJECT_ID":"2023-055A","EPOCH":"2026-04-25T19:17:05.633952","MEAN_MOTION":15.52336625,"ECCENTRICITY":0.000597,"INCLINATION":49.9926,"RA_OF_ASC_NODE":256.1754,"ARG_OF_PERICENTER":319.9,"MEAN_ANOMALY":40.1526,"EPHEMERIS_TYPE":0,"CLASSIFICATION_TYPE":"U","NORAD_CAT_ID":56232,"ELEMENT_SET_NO":999,"REV_AT_EPOCH":17186,"BSTAR":0.00045359,"MEAN_MOTION_DOT":0.00027829,"MEAN_MOTION_DDOT":0},{"OBJECT_NAME":"METEOR-M2 3","OBJECT_ID":"2023-091A","EPOCH":"2026-04-25T19:45:28.918368","MEAN_MOTION":14.2404212,"ECCENTRICITY":0.0003304,"INCLINATION":98.6131,"RA_OF_ASC_NODE":171.8617,"ARG_OF_PERICENTER":339.0434,"MEAN_ANOMALY":21.0609,"EPHEMERIS_TYPE":0,"CLASSIFICATION_TYPE":"U","NORAD_CAT_ID":57166,"ELEMENT_SET_NO":999,"REV_AT_EPOCH":14706,"BSTAR":1.3765e-5,"MEAN_MOTION_DOT":-1.2e-7,"MEAN_MOTION_DDOT":0},{"OBJECT_NAME":"TIANMU-1 07","OBJECT_ID":"2023-101A","EPOCH":"2026-04-25T19:51:29.747232","MEAN_MOTION":15.29245193,"ECCENTRICITY":0.0001532,"INCLINATION":97.2642,"RA_OF_ASC_NODE":167.7089,"ARG_OF_PERICENTER":15.4872,"MEAN_ANOMALY":344.6415,"EPHEMERIS_TYPE":0,"CLASSIFICATION_TYPE":"U","NORAD_CAT_ID":57399,"ELEMENT_SET_NO":999,"REV_AT_EPOCH":15364,"BSTAR":0.00024763,"MEAN_MOTION_DOT":6.953e-5,"MEAN_MOTION_DDOT":0},{"OBJECT_NAME":"TIANMU-1 08","OBJECT_ID":"2023-101B","EPOCH":"2026-04-25T19:04:42.915360","MEAN_MOTION":15.29274281,"ECCENTRICITY":0.0002337,"INCLINATION":97.263,"RA_OF_ASC_NODE":167.4536,"ARG_OF_PERICENTER":322.0765,"MEAN_ANOMALY":38.031,"EPHEMERIS_TYPE":0,"CLASSIFICATION_TYPE":"U","NORAD_CAT_ID":57400,"ELEMENT_SET_NO":999,"REV_AT_EPOCH":15363,"BSTAR":0.00026196,"MEAN_MOTION_DOT":7.367e-5,"MEAN_MOTION_DDOT":0},{"OBJECT_NAME":"TIANMU-1 09","OBJECT_ID":"2023-101C","EPOCH":"2026-04-25T20:15:29.602368","MEAN_MOTION":15.29282335,"ECCENTRICITY":0.0002031,"INCLINATION":97.2589,"RA_OF_ASC_NODE":166.9461,"ARG_OF_PERICENTER":6.9466,"MEAN_ANOMALY":353.1803,"EPHEMERIS_TYPE":0,"CLASSIFICATION_TYPE":"U","NORAD_CAT_ID":57401,"ELEMENT_SET_NO":999,"REV_AT_EPOCH":15364,"BSTAR":0.00024554,"MEAN_MOTION_DOT":6.902e-5,"MEAN_MOTION_DDOT":0}]
