METOP-C                 
1 43689U 18087A   26115.84036190  .00000093  00000+0  62383-4 0  9997
2 43689  98.6680 176.3914 0000865  40.7694 319.3548 14.21511565387393
GEO-KOMPSAT-2A          
1 43823U 18100A   26115.73508002 -.00000358  00000+0  00000+0 0  9995
2 43823   0.0542  66.6638 0001934 358.3909 181.5885  1.00271473 27103
METEOR-M2 2             
1 44387U 19038A   26115.84075519  .00000024  00000+0  30052-4 0  9990
2 44387  98.9136 102.3607 0001736 128.7449 231.3884 14.24350594353844
ARKTIKA-M 1             
1 47719U 21016A   26113.16409645 -.00000101  00000+0  00000+0 0  9997
2 47719  63.2246  65.5569 7266494 269.6808  14.9538  2.00609676 37686
FENGYUN 3E              
1 49008U 21062A   26115.84467036  .00000178  00000+0  10442-3 0  9994
2 49008  98.7513 119.8357 0000779 197.9012 162.2137 14.19899761249150
GOES 18                 
1 51850U 22021A   26115.68255980  .00000083  00000+0  00000+0 0  9993
2 51850   0.0124  93.6914 0000386 357.8405 230.8777  1.00271801  6065
NOAA 21 (JPSS-2)        
1 54234U 22150A   26115.80556598  .00000040  00000+0  39487-4 0  9997
2 54234  98.7032  55.4822 0001852  23.6465 336.4796 14.19555423179113
METEOSAT-12 (MTG-I1)    
1 54743U 22170C   26115.85227925 -.00000021  00000+0  00000+0 0  9992
2 54743   0.7233  22.2267 0001131 330.7697 167.3619  1.00269280 12455
TIANMU-1 03             
1 55973U 23039A   26115.83419178  .00016251  00000+0  33752-3 0  9999
2 55973  97.5221 287.8205 0001654 286.9253  73.1814 15.45761773172741
TIANMU-1 04             
1 55974U 23039B   26115.84296010  .00016658  00000+0  33954-3 0  9994
2 55974  97.5155 286.9826 0002280 279.1777  80.9214 15.46305728172754
TIANMU-1 05             
1 55975U 23039C   26115.81263337  .00015972  00000+0  33250-3 0  9995
2 55975  97.5200 287.4323 0001630 329.3818  30.7335 15.45698115172724
TIANMU-1 06             
1 55976U 23039D   26115.84348855  .00016419  00000+0  33554-3 0  9992
2 55976  97.5209 288.0488 0001824 315.7336  44.3767 15.46233269172751
FENGYUN 3G              
1 56232U 23055A   26115.80353743  .00027829  00000+0  45359-3 0  9997
2 56232  49.9926 256.1754 0005970 319.9000  40.1526 15.52336625171861
METEOR-M2 3             
1 57166U 23091A   26115.82325137 -.00000012  00000+0  13765-4 0  9995
2 57166  98.6131 171.8617 0003304 339.0434  21.0609 14.24042120147068
TIANMU-1 07             
1 57399U 23101A   26115.82742763  .00006953  00000+0  24763-3 0  9991
2 57399  97.2642 167.7089 0001532  15.4872 344.6415 15.29245193153648
TIANMU-1 08             
1 57400U 23101B   26115.79494115  .00007367  00000+0  26196-3 0  9997
2 57400  97.2630 167.4536 0002337 322.0765  38.0310 15.29274281153631
TIANMU-1 09             
1 57401U 23101C   26115.84409262  .00006902  00000+0  24554-3 0  9993
2 57401  97.2589 166.9461 0002031   6.9466 353.1803 15.29282335153641
